      2.10          N: GNSS NAV DATA                        RINEX VERSION / TYPE
fic2rin                                 04/18/2021 00:17:23 PGM / RUN BY / DATE
                                                            END OF HEADER
10 21  4 17  4  0  0.0-1.035551540554e-04-7.730704965070e-12 0.000000000000e+00
    6.500000000000e+01-1.675000000000e+01 4.449828210349e-09 2.798060311632e+00
   -8.735805749893e-07 6.569882854819e-03 8.726492524147e-06 5.153670475006e+03
    5.328000000000e+05-8.381903171539e-08-1.653235619739e+00-5.774199962616e-08
    9.684410438224e-01 2.161875000000e+02-2.563446230534e+00-7.739965257763e-09
    4.271606500985e-10 1.000000000000e+00 2.153000000000e+03 0.000000000000e+00
    2.400000000000e+00 0.000000000000e+00 2.328306436539e-09 6.500000000000e+01
    5.256000000000e+05 4.000000000000e+00
 8 21  4 17  4  0  0.0-1.777755096555e-05-1.364242052659e-12 0.000000000000e+00
    5.500000000000e+01-9.406250000000e+00 4.437327689652e-09 7.893971757781e-01
   -4.786998033524e-07 6.335086072795e-03 2.335757017136e-06 5.153584974289e+03
    5.328000000000e+05 5.029141902924e-08 2.521327151305e+00 9.872019290924e-08
    9.676619726510e-01 3.374687500000e+02 2.885383547806e-02-8.306774581933e-09
   -1.535778257043e-11 1.000000000000e+00 2.153000000000e+03 0.000000000000e+00
    2.400000000000e+00 0.000000000000e+00 5.122274160385e-09 5.500000000000e+01
    5.256000000000e+05 4.000000000000e+00
14 21  4 17  4  0  0.0 9.546289220452e-05-2.955857780762e-12 0.000000000000e+00
    3.700000000000e+01 9.181250000000e+01 4.450542525817e-09-2.234115018075e+00
    4.930421710014e-06 5.938975373283e-04 6.090849637985e-06 5.153750101089e+03
    5.328000000000e+05 2.793967723846e-08 1.535934427205e+00-1.117587089539e-08
    9.573797519895e-01 2.605625000000e+02 2.498486067128e+00-8.105694777580e-09
    1.850077063136e-10 1.000000000000e+00 2.153000000000e+03 0.000000000000e+00
    2.400000000000e+00 0.000000000000e+00-7.916241884232e-09 3.700000000000e+01
    5.256000000000e+05 4.000000000000e+00
13 21  4 17  4  0  0.0 1.208707690239e-04 4.661160346586e-12 0.000000000000e+00
    1.040000000000e+02-1.440625000000e+01 4.696624204679e-09 1.656001424364e-01
   -6.109476089478e-07 4.911205382086e-03 6.616115570068e-06 5.153675334930e+03
    5.328000000000e+05 7.450580596924e-09-4.720956879032e-01 0.000000000000e+00
    9.681938238333e-01 2.526562500000e+02 9.879233544017e-01-8.121052560151e-09
   -3.417999516257e-10 1.000000000000e+00 2.153000000000e+03 0.000000000000e+00
    2.400000000000e+00 0.000000000000e+00-1.117587089539e-08 1.040000000000e+02
    5.256000000000e+05 4.000000000000e+00
 7 21  4 17  4  0  0.0 1.243646256626e-04 1.148237060988e-11 0.000000000000e+00
    1.080000000000e+02 2.756250000000e+01 4.423755695753e-09-2.013577109866e+00
    1.283362507820e-06 1.476881280541e-02 9.471550583839e-06 5.153588336945e+03
    5.328000000000e+05 7.450580596924e-08 4.522327713901e-01-1.955777406693e-07
    9.522195600868e-01 1.913437500000e+02-2.341199018119e+00-7.656390347961e-09
   -2.817974522807e-10 1.000000000000e+00 2.153000000000e+03 0.000000000000e+00
    2.400000000000e+00 0.000000000000e+00-1.117587089539e-08 1.080000000000e+02
    5.256000000000e+05 4.000000000000e+00
29 21  4 17  4  0  0.0-3.313622437418e-04-6.707523425575e-12 0.000000000000e+00
    6.300000000000e+01-3.625000000000e+01 4.046597128442e-09 9.174523054454e-01
   -1.810491085052e-06 1.729033421725e-03 2.974644303322e-06 5.153654825211e+03
    5.328000000000e+05-5.587935447693e-09 2.611078638386e+00-7.264316082001e-08
    9.842915695690e-01 3.331250000000e+02 2.115419177460e+00-8.085693944465e-09
    8.571785620706e-12 1.000000000000e+00 2.153000000000e+03 0.000000000000e+00
    2.400000000000e+00 0.000000000000e+00-1.024454832077e-08 6.300000000000e+01
    5.256000000000e+05 4.000000000000e+00
15 21  4 17  4  0  0.0-1.556486822665e-04 2.614797267597e-12 0.000000000000e+00
    4.200000000000e+01-1.046875000000e+01 5.744167839076e-09-1.715808426651e-01
   -3.762543201447e-07 1.309183612466e-02 5.712732672691e-06 5.153589103699e+03
    5.328000000000e+05-5.587935447693e-08-7.180727350231e-01 1.266598701477e-07
    9.288208407962e-01 2.502500000000e+02 9.760275541167e-01-8.795723520047e-09
   -1.817932867058e-10 1.000000000000e+00 2.153000000000e+03 0.000000000000e+00
    2.400000000000e+00 0.000000000000e+00-1.071020960808e-08 4.200000000000e+01
    5.256000000000e+05 4.000000000000e+00
31 21  4 17  4  0  0.0-1.120367087424e-04-2.160049916711e-12 0.000000000000e+00
    5.300000000000e+01 4.365625000000e+01 4.393040130612e-09-2.573256300237e+00
    2.156943082809e-06 9.937110473402e-03 9.767711162567e-06 5.153773487091e+03
    5.328000000000e+05-6.332993507385e-08 4.691153331766e-01-1.639127731323e-07
    9.565367161880e-01 1.891875000000e+02 2.586253695390e-01-7.779609766259e-09
   -3.678724662220e-10 1.000000000000e+00 2.153000000000e+03 0.000000000000e+00
    2.400000000000e+00 0.000000000000e+00-1.303851604462e-08 5.300000000000e+01
    5.256000000000e+05 4.000000000000e+00
25 21  4 17  4  0  0.0 1.200456172228e-04 7.275957614183e-12 0.000000000000e+00
    4.100000000000e+01 1.005312500000e+02 4.226247468742e-09-3.078392578127e+00
    5.183741450310e-06 9.927875595167e-03 5.697831511497e-06 5.153645841599e+03
    5.328000000000e+05 4.284083843231e-08 1.489436423085e+00-4.656612873077e-08
    9.612484359243e-01 2.690312500000e+02 9.640954866297e-01-7.858541625516e-09
    1.567922453121e-10 1.000000000000e+00 2.153000000000e+03 0.000000000000e+00
    2.400000000000e+00 0.000000000000e+00 5.587935447693e-09 4.100000000000e+01
    5.256000000000e+05 4.000000000000e+00
20 21  4 17  4  0  0.0 5.230968818069e-04-3.410605131648e-13 0.000000000000e+00
    4.000000000000e+01-1.528125000000e+01 5.139856952816e-09-1.665676256068e+00
   -8.046627044678e-07 6.029958138242e-03 8.832663297653e-06 5.151702816010e+03
    5.328000000000e+05-1.117587089539e-08-1.794887582558e+00-1.117587089539e-07
    9.374238099787e-01 1.968125000000e+02 3.020815485776e+00-8.269273019842e-09
    4.853773607725e-10 1.000000000000e+00 2.153000000000e+03 0.000000000000e+00
    2.400000000000e+00 0.000000000000e+00-8.381903171539e-09 4.000000000000e+01
    5.256000000000e+05 4.000000000000e+00
17 21  4 17  4  0  0.0 4.276419058442e-04 6.252776074689e-12 0.000000000000e+00
    3.200000000000e+01-2.471875000000e+01 4.184817171576e-09 7.341061591767e-01
   -1.421198248863e-06 1.336595311295e-02 3.062188625336e-06 5.153580728531e+03
    5.328000000000e+05-1.657754182816e-07 2.598697987551e+00-5.029141902924e-08
    9.824429677673e-01 3.295312500000e+02-1.570273342359e+00-8.318203629427e-09
   -4.428755904031e-11 1.000000000000e+00 2.153000000000e+03 0.000000000000e+00
    2.400000000000e+00 0.000000000000e+00-1.117587089539e-08 3.200000000000e+01
    5.256000000000e+05 4.000000000000e+00
16 21  4 17  4  0  0.0-3.108950331807e-04-5.911715561524e-12 0.000000000000e+00
    8.600000000000e+01 1.049687500000e+02 4.148744240422e-09 1.668858246256e+00
    5.355104804039e-06 1.224629103672e-02 6.139278411865e-06 5.153683900833e+03
    5.328000000000e+05-1.844018697739e-07 1.581233998594e+00 3.725290298462e-08
    9.739588182542e-01 2.707187500000e+02 6.736481700474e-01-8.060692903071e-09
    4.321608583773e-11 1.000000000000e+00 2.153000000000e+03 0.000000000000e+00
    2.400000000000e+00 0.000000000000e+00-1.024454832077e-08 8.600000000000e+01
    5.256000000000e+05 4.000000000000e+00
27 21  4 17  4  0  0.0-1.140967942774e-04-6.821210263297e-12 0.000000000000e+00
    9.300000000000e+01-1.203125000000e+01 4.297679015581e-09 7.340070698836e-01
   -7.078051567078e-07 9.372756700031e-03 2.603977918625e-06 5.153680803299e+03
    5.328000000000e+05-9.499490261078e-08 2.538244932844e+00 1.359730958939e-07
    9.762379963454e-01 3.383437500000e+02 6.070110007418e-01-8.287845222020e-09
   -7.107438910502e-11 1.000000000000e+00 2.153000000000e+03 0.000000000000e+00
    2.400000000000e+00 0.000000000000e+00 1.862645149231e-09 9.300000000000e+01
    5.256000000000e+05 4.000000000000e+00
30 21  4 17  4  0  0.0-4.138867370784e-04-5.229594535194e-12 0.000000000000e+00
    7.700000000000e+01 2.646875000000e+01 4.813771941495e-09-2.154184576971e+00
    1.261010766029e-06 5.094981985167e-03 9.736046195030e-06 5.153721706390e+03
    5.328000000000e+05-5.774199962616e-08 4.699981018332e-01-2.793967723846e-08
    9.374328317945e-01 1.792500000000e+02-2.811145892950e+00-8.007119242942e-09
   -3.135844906242e-10 1.000000000000e+00 2.153000000000e+03 0.000000000000e+00
    2.400000000000e+00 0.000000000000e+00 3.725290298462e-09 7.700000000000e+01
    5.256000000000e+05 4.000000000000e+00
19 21  4 17  4  0  0.0-1.193117350340e-05 5.002220859751e-12 0.000000000000e+00
    1.060000000000e+02-3.800000000000e+01 4.087670267874e-09-3.040323802650e+00
   -2.102926373482e-06 9.186135604978e-03 2.745538949966e-06 5.153632364273e+03
    5.328000000000e+05 1.415610313416e-07 2.643895922706e+00 1.210719347000e-07
    9.809655902058e-01 3.310937500000e+02 1.811152551534e+00-7.936044853837e-09
    1.250052069686e-11 1.000000000000e+00 2.153000000000e+03 0.000000000000e+00
    3.400000000000e+00 0.000000000000e+00-1.583248376846e-08 1.060000000000e+02
    5.256000000000e+05 4.000000000000e+00
28 21  4 17  4  0  0.0 5.855760537088e-04-6.025402399246e-12 0.000000000000e+00
    6.700000000000e+01 8.371875000000e+01 4.164816338461e-09 1.452320481263e+00
    4.172325134277e-06 1.747641176917e-02 5.817040801048e-06 5.154312471390e+03
    5.328000000000e+05 1.937150955200e-07 1.584801164873e+00-4.377216100693e-07
    9.730414925467e-01 2.698750000000e+02-1.340770815526e+00-7.961045895231e-09
    1.964367538078e-10 1.000000000000e+00 2.153000000000e+03 0.000000000000e+00
    2.400000000000e+00 0.000000000000e+00-1.117587089539e-08 6.700000000000e+01
    5.256000000000e+05 4.000000000000e+00
